STARLINK-4352           
1 53047U 22077E   26167.03615001 -.00001077  00000+0 -70707-4 0  9996
2 53047  97.3559 346.0955 0001123 141.1379 218.9929 15.05656806215712
STARLINK-4355           
1 53048U 22077F   26167.07627441 -.00000271  00000+0 -14824-4 0  9995
2 53048  97.3558 347.2605 0001322  95.5098 264.6280 15.05648305215788
STARLINK-4345           
1 53049U 22077G   26167.04722542 -.00001000  00000+0 -65365-4 0  9998
2 53049  97.3571 346.0693 0001306 119.5988 240.5370 15.05655627215705
STARLINK-4343           
1 53050U 22077H   26167.09843791 -.00000045  00000+0  87682-6 0  9990
2 53050  97.3564 347.2216 0001491  76.0149 284.1244 15.05638026215780
STARLINK-4336           
1 53051U 22077J   26166.99462486  .00000615  00000+0  46572-4 0  9990
2 53051  97.3586 345.9822 0001827  74.2019 285.9409 15.05649681215693
STARLINK-4341           
1 53052U 22077K   26166.98353190 -.00009841  00000+0 -67797-3 0  9994
2 53052  97.3579 346.0058 0001567  47.9520 312.1841 15.05708813215690
STARLINK-4337           
1 53053U 22077L   26167.05829656 -.00002371  00000+0 -16032-3 0  9996
2 53053  97.3563 346.0377 0001211  96.3155 263.8210 15.05669385215700
STARLINK-4339           
1 53054U 22077M   26167.06242895 -.00004201  00000+0 -28725-3 0  9998
2 53054  97.3562 347.2654 0001664  72.5355 287.6054 15.05668288215780
STARLINK-4338           
1 53055U 22077N   26167.09288118 -.00002200  00000+0 -14851-3 0  9992
2 53055  97.3541 347.2070 0000762  66.7584 293.3723 15.05659394215782
STARLINK-4314           
1 53056U 22077P   26167.07904144 -.00000235  00000+0 -12353-4 0  9997
2 53056  97.3554 347.2353 0001789 106.1496 253.9929 15.05648699215788
STARLINK-4252           
1 53057U 22077Q   26167.03751115  .00001412  00000+0  10184-3 0  9997
2 53057  97.3549 347.2721 0002111  92.6033 267.5436 15.05648749215788
STARLINK-4317           
1 53058U 22077R   26167.06661406  .00000711  00000+0  53247-4 0  9993
2 53058  97.3548 346.1768 0001324  40.3072 319.8254 15.05650187215727
STARLINK-4320           
1 53059U 22077S   26167.03060889 -.00001490  00000+0 -99276-4 0  9998
2 53059  97.3554 346.0555 0001321 151.6560 208.4740 15.05658671215700
STARLINK-4305           
1 53060U 22077T   26166.98907421  .00002646  00000+0  18732-3 0  9994
2 53060  97.3573 345.9731 0002502  44.2579 315.8848 15.05644481215690
STARLINK-4308           
1 53061U 22077U   26167.09153350  .00000670  00000+0  50401-4 0  9997
2 53061  97.3548 346.1178 0001866  85.0062 275.1379 15.05647543215715
STARLINK-4311           
1 53062U 22077V   26167.06384866 -.00001683  00000+0 -11267-3 0  9996
2 53062  97.3559 346.1676 0001443 102.4771 257.6618 15.05655919215710
STARLINK-4307           
1 53063U 22077W   26166.98765313  .00000155  00000+0  14715-4 0  9990
2 53063  97.3590 347.0984 0001213  85.4775 274.6591 15.05657559 87355
STARLINK-4313           
1 53064U 22077X   26167.06521407 -.00000395  00000+0 -23438-4 0  9995
2 53064  97.3563 347.2279 0001419  79.3105 280.8282 15.05648614215780
STARLINK-4312           
1 53065U 22077Y   26166.98631095 -.00001609  00000+0 -10755-3 0  9997
2 53065  97.3578 346.1011 0001421 113.2647 246.8730 15.05666422215700
STARLINK-4309           
1 53066U 22077Z   26167.07491789  .00001645  00000+0  11791-3 0  9992
2 53066  97.3557 346.1370 0001229  85.4219 274.7149 15.05656452215714
STARLINK-4325           
1 53068U 22077AB  26166.99319641  .00000926  00000+0  68157-4 0  9990
2 53068  97.3577 347.1583 0000920  90.3998 269.7335 15.05652683215770
STARLINK-4323           
1 53069U 22077AC  26167.09430366 -.00002760  00000+0 -18731-3 0  9993
2 53069  97.3553 346.0892 0001288 141.6910 218.4409 15.05662042215715
STARLINK-4342           
1 53070U 22077AD  26167.08735617 -.00000665  00000+0 -42150-4 0  9996
2 53070  97.3553 347.3338 0001371  93.6016 266.5368 15.05651071215798
STARLINK-4328           
1 53071U 22077AE  26167.08458648  .00000220  00000+0  19241-4 0  9993
2 53071  97.3562 347.3198 0001718  88.5737 271.5687 15.05646160215794
STARLINK-4344           
1 53072U 22077AF  26167.07073080 -.00000635  00000+0 -40048-4 0  9997
2 53072  97.3560 347.1955 0001148 111.3961 248.7389 15.05647505215781
STARLINK-4346           
1 53073U 22077AG  26167.09974444  .00012306  00000+0  53049-3 0  9994
2 53073  97.6348 356.6292 0004711 230.8336 129.2481 15.22702475216267
STARLINK-4310           
1 53074U 22077AH  26167.16668980  .00001398  00000+0  58201-4 0  9993
2 53074  97.5791 348.4534 0002040  80.4529 281.5806 15.25463914  5829
STARLINK-4348           
1 53075U 22077AJ  26167.03338477 -.00001049  00000+0 -68756-4 0  9996
2 53075  97.3558 346.1526 0000923  90.6293 269.5040 15.05659633215714
STARLINK-4347           
1 53076U 22077AK  26167.08322317 -.00000076  00000+0 -13295-5 0  9996
2 53076  97.3546 346.0972 0000844 102.0199 258.1123 15.05650078215711
STARLINK-4322           
1 53078U 22077AM  26167.03892441 -.00000633  00000+0 -39912-4 0  9995
2 53078  97.3561 346.1483 0001021 107.0273 253.1066 15.05655787215717
