OBJECT_NAME,OBJECT_ID,EPOCH,MEAN_MOTION,ECCENTRICITY,INCLINATION,RA_OF_ASC_NODE,ARG_OF_PERICENTER,MEAN_ANOMALY,EPHEMERIS_TYPE,CLASSIFICATION_TYPE,NORAD_CAT_ID,ELEMENT_SET_NO,REV_AT_EPOCH,BSTAR,MEAN_MOTION_DOT,MEAN_MOTION_DDOT
STARLINK-4352,2022-077E,2026-06-16T00:52:03.360864,15.05656806,.0001123,97.3559,346.0955,141.1379,218.9929,0,U,53047,999,21571,-.70707E-4,-.1077E-4,0
STARLINK-4355,2022-077F,2026-06-16T01:49:50.109024,15.05648305,.0001322,97.3558,347.2605,95.5098,264.6280,0,U,53048,999,21578,-.14824E-4,-.271E-5,0
STARLINK-4345,2022-077G,2026-06-16T01:08:00.276288,15.05655627,.0001306,97.3571,346.0693,119.5988,240.5370,0,U,53049,999,21570,-.65365E-4,-.1E-4,0
STARLINK-4343,2022-077H,2026-06-16T02:21:45.035424,15.05638026,.0001491,97.3564,347.2216,76.0149,284.1244,0,U,53050,999,21578,.87682E-6,-.45E-6,0
STARLINK-4336,2022-077J,2026-06-15T23:52:15.587904,15.05649681,.0001827,97.3586,345.9822,74.2019,285.9409,0,U,53051,999,21569,.46572E-4,.615E-5,0
STARLINK-4341,2022-077K,2026-06-15T23:36:17.156160,15.05708813,.0001567,97.3579,346.0058,47.9520,312.1841,0,U,53052,999,21569,-.67797E-3,-.9841E-4,0
STARLINK-4337,2022-077L,2026-06-16T01:23:56.822784,15.05669385,.0001211,97.3563,346.0377,96.3155,263.8210,0,U,53053,999,21570,-.16032E-3,-.2371E-4,0
STARLINK-4339,2022-077M,2026-06-16T01:29:53.861280,15.05668288,.0001664,97.3562,347.2654,72.5355,287.6054,0,U,53054,999,21578,-.28725E-3,-.4201E-4,0
STARLINK-4338,2022-077N,2026-06-16T02:13:44.933952,15.05659394,.0000762,97.3541,347.2070,66.7584,293.3723,0,U,53055,999,21578,-.14851E-3,-.22E-4,0
STARLINK-4314,2022-077P,2026-06-16T01:53:49.180416,15.05648699,.0001789,97.3554,347.2353,106.1496,253.9929,0,U,53056,999,21578,-.12353E-4,-.235E-5,0
STARLINK-4252,2022-077Q,2026-06-16T00:54:00.963360,15.05648749,.0002111,97.3549,347.2721,92.6033,267.5436,0,U,53057,999,21578,.10184E-3,.1412E-4,0
STARLINK-4317,2022-077R,2026-06-16T01:35:55.454784,15.05650187,.0001324,97.3548,346.1768,40.3072,319.8254,0,U,53058,999,21572,.53247E-4,.711E-5,0
STARLINK-4320,2022-077S,2026-06-16T00:44:04.608096,15.05658671,.0001321,97.3554,346.0555,151.6560,208.4740,0,U,53059,999,21570,-.99276E-4,-.149E-4,0
STARLINK-4305,2022-077T,2026-06-15T23:44:16.011744,15.05644481,.0002502,97.3573,345.9731,44.2579,315.8848,0,U,53060,999,21569,.18732E-3,.2646E-4,0
STARLINK-4308,2022-077U,2026-06-16T02:11:48.494400,15.05647543,.0001866,97.3548,346.1178,85.0062,275.1379,0,U,53061,999,21571,.50401E-4,.67E-5,0
STARLINK-4311,2022-077V,2026-06-16T01:31:56.524224,15.05655919,.0001443,97.3559,346.1676,102.4771,257.6618,0,U,53062,999,21571,-.11267E-3,-.1683E-4,0
STARLINK-4307,2022-077W,2026-06-15T23:42:13.230432,15.05657559,.0001213,97.3590,347.0984,85.4775,274.6591,0,U,53063,999,8735,.14715E-4,.155E-5,0
STARLINK-4313,2022-077X,2026-06-16T01:33:54.495648,15.05648614,.0001419,97.3563,347.2279,79.3105,280.8282,0,U,53064,999,21578,-.23438E-4,-.395E-5,0
STARLINK-4312,2022-077Y,2026-06-15T23:40:17.266080,15.05666422,.0001421,97.3578,346.1011,113.2647,246.8730,0,U,53065,999,21570,-.10755E-3,-.1609E-4,0
STARLINK-4309,2022-077Z,2026-06-16T01:47:52.905696,15.05656452,.0001229,97.3557,346.1370,85.4219,274.7149,0,U,53066,999,21571,.11791E-3,.1645E-4,0
STARLINK-4325,2022-077AB,2026-06-15T23:50:12.169824,15.05652683,.000092,97.3577,347.1583,90.3998,269.7335,0,U,53068,999,21577,.68157E-4,.926E-5,0
STARLINK-4323,2022-077AC,2026-06-16T02:15:47.836224,15.05662042,.0001288,97.3553,346.0892,141.6910,218.4409,0,U,53069,999,21571,-.18731E-3,-.276E-4,0
STARLINK-4342,2022-077AD,2026-06-16T02:05:47.573088,15.05651071,.0001371,97.3553,347.3338,93.6016,266.5368,0,U,53070,999,21579,-.4215E-4,-.665E-5,0
STARLINK-4328,2022-077AE,2026-06-16T02:01:48.271872,15.05646160,.0001718,97.3562,347.3198,88.5737,271.5687,0,U,53071,999,21579,.19241E-4,.22E-5,0
STARLINK-4344,2022-077AF,2026-06-16T01:41:51.141120,15.05647505,.0001148,97.3560,347.1955,111.3961,248.7389,0,U,53072,999,21578,-.40048E-4,-.635E-5,0
STARLINK-4346,2022-077AG,2026-06-16T02:23:37.919616,15.22702475,.0004711,97.6348,356.6292,230.8336,129.2481,0,U,53073,999,21626,.53049E-3,.12306E-3,0
STARLINK-4310,2022-077AH,2026-06-16T04:00:01.998720,15.25463914,.000204,97.5791,348.4534,80.4529,281.5806,0,U,53074,999,582,.58201E-4,.1398E-4,0
STARLINK-4348,2022-077AJ,2026-06-16T00:48:04.444128,15.05659633,.0000923,97.3558,346.1526,90.6293,269.5040,0,U,53075,999,21571,-.68756E-4,-.1049E-4,0
STARLINK-4347,2022-077AK,2026-06-16T01:59:50.481888,15.05650078,.0000844,97.3546,346.0972,102.0199,258.1123,0,U,53076,999,21571,-.13295E-5,-.76E-6,0
STARLINK-4322,2022-077AM,2026-06-16T00:56:03.069024,15.05655787,.0001021,97.3561,346.1483,107.0273,253.1066,0,U,53078,999,21571,-.39912E-4,-.633E-5,0
